KUIPER-00079            
1 64826U 25151L   25244.25002315 -.01125969  00000+0 -60242-1 0  9994
2 64826  51.8887  62.4430 0007990 320.8766  26.3222 15.17339290  4428
KUIPER-00080            
1 64827U 25151M   25244.25002315 -.00614259  00000+0 -31600-1 0  9995
2 64827  51.8898  62.4380 0003706 345.7844  63.7745 15.18425392  5234
KUIPER-00082            
1 64828U 25151N   25243.91885672  .00057887  00000+0  15975-2 0  9997
2 64828  51.8789  62.5436 0005812 304.1497  55.8937 15.36512445  7165
KUIPER-00083            
1 64829U 25151P   25244.25002315 -.01036842  00000+0 -39797-1 0  9999
2 64829  51.8820  61.2701 0007286 316.3739 261.9056 15.28694102  5661
KUIPER-00084            
1 64830U 25151Q   25244.25002315 -.01671402  00000+0 -12667+0 0  9993
2 64830  51.8926  64.9224 0009414 309.9001 238.9930 15.05070454  5191
KUIPER-00085            
1 64831U 25151R   25243.91426857  .00069444  00000+0  18983-2 0  9991
2 64831  51.8794  62.5171 0006829 305.7713  54.2638 15.36720446  7161
KUIPER-00086            
1 64832U 25151S   25244.25002315 -.01205503  00000+0 -54656-1 0  9996
2 64832  51.8817  61.7660 0009306 311.2042  17.0290 15.23151660  4971
KUIPER-00087            
1 64833U 25151T   25243.79179579  .00076237  00000+0  20989-2 0  9992
2 64833  51.8781  63.1949 0005562 306.3300  53.7173 15.36462184  7149
